NORAD_CAT_ID,OBJECT_NAME,OBJECT_TYPE,EPOCH,MEAN_MOTION,ECCENTRICITY,INCLINATION,RA_OF_ASC_NODE,ARG_OF_PERICENTER,MEAN_ANOMALY,BSTAR,MEAN_MOTION_DOT,MEAN_MOTION_DDOT,TLE_LINE0,TLE_LINE1,TLE_LINE2,SEMIMAJOR_AXIS,PERIOD,APOGEE,PERIGEE,DECAYED
53595.0,STARLINK-4684,PAYLOAD,2023-03-08 21:06:59,15.08863947,0.0001883,53.2152,127.901,91.4867,268.634,0.0024078,0.00038266,0.0,0 STARLINK-4684,1 53595U 22104H   23067.87985006  .00038266  00000-0  24078-2 0  9995,2 53595  53.2152 127.9010 0001883  91.4867 268.6340 15.08863947 29755,6917.807,95.436,540.975,538.37,0.0
53595.0,STARLINK-4684,PAYLOAD,2023-03-09 13:00:49,15.08900216,0.0001706,53.2155,124.9258,96.7242,263.3944,0.00353,0.00056435,0.0,0 STARLINK-4684,1 53595U 22104H   23068.54223729  .00056435  00000-0  35300-2 0  9995,2 53595  53.2155 124.9258 0001706  96.7242 263.3944 15.08900216 29852,6917.696,95.434,540.741,538.381,0.0
53595.0,STARLINK-4684,PAYLOAD,2023-03-09 20:57:44,15.08882258,0.0001863,53.2162,123.4394,91.5325,268.588,0.0019582,0.00031051,0.0,0 STARLINK-4684,1 53595U 22104H   23068.87343620  .00031051  00000-0  19582-2 0  9995,2 53595  53.2162 123.4394 0001863  91.5325 268.5880 15.08882258 30510,6917.751,95.435,540.905,538.327,0.0
53595.0,STARLINK-4684,PAYLOAD,2023-03-10 09:40:49,15.0885671,0.0001066,53.2155,121.061,110.0313,250.0794,0.0015101,0.00023838,0.0,0 STARLINK-4684,1 53595U 22104H   23069.40335257  .00023838  00000-0  15101-2 0  9999,2 53595  53.2155 121.0610 0001066 110.0313 250.0794 15.08856710 29989,6917.829,95.436,540.432,538.957,0.0
53595.0,STARLINK-4684,PAYLOAD,2023-03-10 20:48:32,15.08840486,0.0001233,53.2155,118.9773,93.7962,266.3171,0.00096932,0.00015173,0.0,0 STARLINK-4684,1 53595U 22104H   23069.86703862  .00015173  00000-0  96932-3 0  9995,2 53595  53.2155 118.9773 0001233  93.7962 266.3171 15.08840486 30666,6917.879,95.438,540.597,538.891,0.0
53595.0,STARLINK-4684,PAYLOAD,2023-03-11 07:56:14,15.08822692,0.0001137,53.2161,116.896,87.8128,272.2994,0.002007,0.00031783,0.0,0 STARLINK-4684,1 53595U 22104H   23070.33072881  .00031783  00000-0  20070-2 0  9993,2 53595  53.2161 116.8960 0001137  87.8128 272.2994 15.08822692 30128,6917.933,95.439,540.585,539.012,0.0
53595.0,STARLINK-4684,PAYLOAD,2023-03-11 12:42:24,15.08831288,0.0001284,53.2163,116.0042,84.1327,275.9812,0.0024868,0.00039502,0.0,0 STARLINK-4684,1 53595U 22104H   23070.52945239  .00039502  00000-0  24868-2 0  9996,2 53595  53.2163 116.0042 0001284  84.1327 275.9812 15.08831288 30767,6917.907,95.438,540.66,538.884,0.0
53595.0,STARLINK-4684,PAYLOAD,2023-03-11 14:17:47,15.08831582,0.0001353,53.2161,115.7062,87.7462,272.3685,0.0020006,0.00031688,0.0,0 STARLINK-4684,1 53595U 22104H   23070.59569288  .00031688  00000-0  20006-2 0  9996,2 53595  53.2161 115.7062 0001353  87.7462 272.3685 15.08831582 30776,6917.906,95.438,540.707,538.835,0.0
53595.0,STARLINK-4684,PAYLOAD,2023-03-12 06:11:39,15.08846315,0.0001411,53.2154,112.7333,93.9725,266.1429,0.0012948,0.00020382,0.0,0 STARLINK-4684,1 53595U 22104H   23071.25809594  .00020382  00000-0  12948-2 0  9992,2 53595  53.2154 112.7333 0001411  93.9725 266.1429 15.08846315 30263,6917.861,95.437,540.702,538.75,0.0
53595.0,STARLINK-4684,PAYLOAD,2023-03-12 14:08:34,15.08862776,0.0001697,53.2175,111.244,87.3857,272.7329,0.0013748,0.00021673,0.0,0 STARLINK-4684,1 53595U 22104H   23071.58929210  .00021673  00000-0  13748-2 0  9999,2 53595  53.2175 111.2440 0001697  87.3857 272.7329 15.08862776 30922,6917.811,95.436,540.85,538.502,0.0
53595.0,STARLINK-4684,PAYLOAD,2023-03-13 01:16:15,15.08892559,0.000151,53.2178,109.1623,81.5651,278.5512,0.0015347,0.00024256,0.0,0 STARLINK-4684,1 53595U 22104H   23072.05295863  .00024256  00000-0  15347-2 0  9999,2 53595  53.2178 109.1623 0001510  81.5651 278.5512 15.08892559 30386,6917.72,95.434,540.629,538.54,0.0
53595.0,STARLINK-4684,PAYLOAD,2023-03-13 12:23:58,15.08870286,0.0002092,53.2165,107.0841,70.211,289.9107,0.0014474,0.00022842,0.0,0 STARLINK-4684,1 53595U 22104H   23072.51664778  .00022842  00000-0  14474-2 0  9994,2 53595  53.2165 107.0841 0002092  70.2110 289.9107 15.08870286 30459,6917.788,95.436,541.1,538.206,0.0
53595.0,STARLINK-4684,PAYLOAD,2023-03-14 02:42:26,15.08861622,8.32e-05,53.2172,104.4082,84.6562,275.4525,-0.00076777,-0.00012493,0.0,0 STARLINK-4684,1 53595U 22104H   23073.11280866 -.00012493  00000-0 -76777-3 0  9991,2 53595  53.2172 104.4082 0000832  84.6562 275.4525 15.08861622 30543,6917.814,95.436,540.255,539.104,0.0
53595.0,STARLINK-4684,PAYLOAD,2023-03-14 12:14:45,15.08847351,0.0001359,53.2172,102.6238,95.4605,264.6542,0.0015429,0.00024357,0.0,0 STARLINK-4684,1 53595U 22104H   23073.51024960  .00024357  00000-0  15429-2 0  9992,2 53595  53.2172 102.6238 0001359  95.4605 264.6542 15.08847351 31216,6917.858,95.437,540.663,538.783,0.0
53595.0,STARLINK-4684,PAYLOAD,2023-03-14 18:36:18,15.08849522,0.0001515,53.2183,101.4333,88.1826,271.9339,0.0011202,0.0001759,0.0,0 STARLINK-4684,1 53595U 22104H   23073.77520993  .00017590  00000-0  11202-2 0  9993,2 53595  53.2183 101.4333 0001515  88.1826 271.9339 15.08849522 31250,6917.851,95.437,540.764,538.668,0.0
53595.0,STARLINK-4684,PAYLOAD,2023-03-15 12:05:31,15.08869652,0.0001508,53.2174,98.1628,94.0624,266.054,0.0010696,0.00016789,0.0,0 STARLINK-4684,1 53595U 22104H   23074.50384179  .00016789  00000-0  10696-2 0  9994,2 53595  53.2174  98.1628 0001508  94.0624 266.0540 15.08869652 30752,6917.79,95.436,540.698,538.612,0.0
53595.0,STARLINK-4684,PAYLOAD,2023-03-15 18:27:04,15.08847697,0.0001414,53.2176,96.9743,95.0519,265.0635,0.0002297,3.37e-05,0.0,0 STARLINK-4684,1 53595U 22104H   23074.76880475  .00003370  00000-0  22970-3 0  9993,2 53595  53.2176  96.9743 0001414  95.0519 265.0635 15.08847697 30791,6917.857,95.437,540.7,538.744,0.0
53595.0,STARLINK-4684,PAYLOAD,2023-03-16 05:34:47,15.08825664,0.0001077,53.217,94.8919,100.5583,259.5531,-0.00029682,-5.007e-05,0.0,0 STARLINK-4684,1 53595U 22104H   23075.23249033 -.00005007  00000-0 -29682-3 0  9993,2 53595  53.2170  94.8919 0001077 100.5583 259.5531 15.08825664 30866,6917.924,95.438,540.534,539.044,0.0
53595.0,STARLINK-4684,PAYLOAD,2023-03-16 10:20:56,15.08826612,0.0001095,53.217,94.0001,101.5984,258.5131,7.0222e-05,8.3e-06,0.0,0 STARLINK-4684,1 53595U 22104H   23075.43121325  .00000830  00000-0  70222-4 0  9992,2 53595  53.2170  94.0001 0001095 101.5984 258.5131 15.08826612 31507,6917.921,95.438,540.544,539.029,0.0
53595.0,STARLINK-4684,PAYLOAD,2023-03-16 18:17:52,15.08824466,0.0001126,53.2173,92.514,104.5357,255.576,0.00047206,7.23e-05,0.0,0 STARLINK-4684,1 53595U 22104H   23075.76241811  .00007230  00000-0  47206-3 0  9997,2 53595  53.2173  92.5140 0001126 104.5357 255.5760 15.08824466 31554,6917.928,95.439,540.572,539.014,0.0
53595.0,STARLINK-4684,PAYLOAD,2023-03-17 07:00:57,15.08844773,0.0001051,53.2174,90.1355,97.0032,263.1079,0.00085941,0.00013418,0.0,0 STARLINK-4684,1 53595U 22104H   23076.29233743  .00013418  00000-0  85941-3 0  9994,2 53595  53.2174  90.1355 0001051  97.0032 263.1079 15.08844773 31023,6917.866,95.437,540.458,539.004,0.0
53595.0,STARLINK-4684,PAYLOAD,2023-03-17 10:11:44,15.08845209,0.0001104,53.2168,89.54,97.8182,262.2935,0.00065714,0.00010187,0.0,0 STARLINK-4684,1 53595U 22104H   23076.42481591  .00010187  00000-0  65714-3 0  9991,2 53595  53.2168  89.5400 0001104  97.8182 262.2935 15.08845209 31657,6917.864,95.437,540.493,538.966,0.0
53595.0,STARLINK-4684,PAYLOAD,2023-03-17 18:08:39,15.08843104,9.99e-05,53.216,88.0522,99.2721,260.8384,0.00043178,6.591e-05,0.0,0 STARLINK-4684,1 53595U 22104H   23076.75601663  .00006591  00000-0  43178-3 0  9995,2 53595  53.2160  88.0522 0000999  99.2721 260.8384 15.08843104 31096,6917.871,95.437,540.427,539.045,0.0
53595.0,STARLINK-4684,PAYLOAD,2023-03-18 17:59:26,15.08844722,0.0001316,53.2167,83.5934,78.8497,281.2643,0.00012178,1.651e-05,0.0,0 STARLINK-4684,1 53595U 22104H   23077.74961443  .00001651  00000-0  12178-3 0  9998,2 53595  53.2167  83.5934 0001316  78.8497 281.2643 15.08844722 31246,6917.866,95.437,540.641,538.821,0.0
53595.0,STARLINK-4684,PAYLOAD,2023-03-19 09:53:17,15.08852314,0.0001292,53.2168,80.6174,100.447,259.6668,0.00039432,5.995e-05,0.0,0 STARLINK-4684,1 53595U 22104H   23078.41201014  .00005995  00000-0  39432-3 0  9991,2 53595  53.2168  80.6174 0001292 100.4470 259.6668 15.08852314 31957,6917.843,95.437,540.602,538.814,0.0
53595.0,STARLINK-4684,PAYLOAD,2023-03-20 06:33:18,15.0884433,0.0001176,53.2164,76.7525,85.0244,275.0883,0.00012334,1.676e-05,0.0,0 STARLINK-4684,1 53595U 22104H   23079.27313204  .00001676  00000-0  12334-3 0  9995,2 53595  53.2164  76.7525 0001176  85.0244 275.0883 15.08844330 31474,6917.867,95.437,540.546,538.919,0.0
53595.0,STARLINK-4684,PAYLOAD,2023-03-20 09:44:04,15.08847376,0.000127,53.2167,76.1578,87.3498,272.7639,0.00023674,3.483e-05,0.0,0 STARLINK-4684,1 53595U 22104H   23079.40561088  .00003483  00000-0  23674-3 0  9992,2 53595  53.2167  76.1578 0001270  87.3498 272.7639 15.08847376 32107,6917.858,95.437,540.601,538.844,0.0
53595.0,STARLINK-4684,PAYLOAD,2023-03-21 11:10:14,15.08852962,0.000135,53.2183,71.4004,98.2596,261.8549,0.0002427,3.578e-05,0.0,0 STARLINK-4684,1 53595U 22104H   23080.46544719  .00003578  00000-0  24270-3 0  9990,2 53595  53.2183  71.4004 0001350  98.2596 261.8549 15.08852962 31651,6917.841,95.437,540.64,538.772,0.0
53595.0,STARLINK-4684,PAYLOAD,2023-03-22 06:14:52,15.08840636,0.0001194,53.2182,67.8332,105.5961,254.5163,9.8031e-05,1.273e-05,0.0,0 STARLINK-4684,1 53595U 22104H   23081.26033425  .00001273  00000-0  98031-4 0  9993,2 53595  53.2182  67.8332 0001194 105.5961 254.5163 15.08840636 31776,6917.878,95.438,540.569,538.917,0.0
53595.0,STARLINK-4684,PAYLOAD,2023-03-22 15:47:11,15.0884161,0.0001125,53.2174,66.048,101.7514,258.3604,0.00034131,5.148e-05,0.0,0 STARLINK-4684,1 53595U 22104H   23081.65777617  .00005148  00000-0  34131-3 0  9999,2 53595  53.2174  66.0480 0001125 101.7514 258.3604 15.08841610 32448,6917.875,95.437,540.519,538.962,0.0
